<?xml version="1.0" encoding="UTF-8"?>
<gpx creator="https://gpx.studio" version="1.1" xmlns="http://www.topografix.com/GPX/1/1" xmlns:xsi="http://www.w3.org/2001/XMLSchema-instance" xsi:schemaLocation="http://www.topografix.com/GPX/1/1 http://www.topografix.com/GPX/1/1/gpx.xsd http://www.garmin.com/xmlschemas/GpxExtensions/v3 http://www.garmin.com/xmlschemas/GpxExtensionsv3.xsd http://www.garmin.com/xmlschemas/TrackPointExtension/v1 http://www.garmin.com/xmlschemas/TrackPointExtensionv1.xsd http://www.garmin.com/xmlschemas/PowerExtension/v1 http://www.garmin.com/xmlschemas/PowerExtensionv1.xsd http://www.topografix.com/GPX/gpx_style/0/2 http://www.topografix.com/GPX/gpx_style/0/2/gpx_style.xsd" xmlns:gpxtpx="http://www.garmin.com/xmlschemas/TrackPointExtension/v1" xmlns:gpxx="http://www.garmin.com/xmlschemas/GpxExtensions/v3" xmlns:gpxpx="http://www.garmin.com/xmlschemas/PowerExtension/v1" xmlns:gpx_style="http://www.topografix.com/GPX/gpx_style/0/2">
  <metadata>
    <name>ESCURI-MOLINA-L23</name>
    <author>
      <name>gpx.studio</name>
      <link href="https://gpx.studio"/>
    </author>
  </metadata>
  <trk>
    <name>ESCURI-MOLINA-L23</name>
    <trkseg>
      <trkpt lat="-15.457057" lon="-70.109248">
        <ele>3824.3</ele>
      </trkpt>
      <trkpt lat="-15.458123" lon="-70.109984">
        <ele>3825</ele>
      </trkpt>
      <trkpt lat="-15.45822" lon="-70.110045">
        <ele>3824.9</ele>
      </trkpt>
      <trkpt lat="-15.458833" lon="-70.11043">
        <ele>3824.25</ele>
      </trkpt>
      <trkpt lat="-15.45954" lon="-70.110865">
        <ele>3824.79</ele>
      </trkpt>
      <trkpt lat="-15.460129" lon="-70.111251">
        <ele>3824.07</ele>
      </trkpt>
      <trkpt lat="-15.460545" lon="-70.111616">
        <ele>3824</ele>
      </trkpt>
      <trkpt lat="-15.461629" lon="-70.112361">
        <ele>3824.03</ele>
      </trkpt>
      <trkpt lat="-15.461952" lon="-70.112648">
        <ele>3824</ele>
      </trkpt>
      <trkpt lat="-15.461986" lon="-70.112791">
        <ele>3824</ele>
      </trkpt>
      <trkpt lat="-15.462013" lon="-70.112903">
        <ele>3824</ele>
      </trkpt>
      <trkpt lat="-15.461668" lon="-70.113197">
        <ele>3824.05</ele>
      </trkpt>
      <trkpt lat="-15.461637" lon="-70.113244">
        <ele>3824</ele>
      </trkpt>
      <trkpt lat="-15.461549" lon="-70.113674">
        <ele>3824.73</ele>
      </trkpt>
      <trkpt lat="-15.46147" lon="-70.114068">
        <ele>3824.81</ele>
      </trkpt>
      <trkpt lat="-15.461383" lon="-70.114508">
        <ele>3824.47</ele>
      </trkpt>
      <trkpt lat="-15.462188" lon="-70.114482">
        <ele>3825</ele>
      </trkpt>
      <trkpt lat="-15.462982" lon="-70.114395">
        <ele>3824.98</ele>
      </trkpt>
      <trkpt lat="-15.463231" lon="-70.114368">
        <ele>3824.97</ele>
      </trkpt>
      <trkpt lat="-15.463262" lon="-70.114667">
        <ele>3824.54</ele>
      </trkpt>
      <trkpt lat="-15.463301" lon="-70.115037">
        <ele>3824</ele>
      </trkpt>
      <trkpt lat="-15.463938" lon="-70.114977">
        <ele>3824</ele>
      </trkpt>
      <trkpt lat="-15.463943" lon="-70.115033">
        <ele>3824</ele>
      </trkpt>
      <trkpt lat="-15.463994" lon="-70.115639">
        <ele>3824</ele>
      </trkpt>
      <trkpt lat="-15.464329" lon="-70.115617">
        <ele>3824</ele>
      </trkpt>
      <trkpt lat="-15.465412" lon="-70.115537">
        <ele>3824</ele>
      </trkpt>
      <trkpt lat="-15.465841" lon="-70.115505">
        <ele>3824</ele>
      </trkpt>
      <trkpt lat="-15.465985" lon="-70.115474">
        <ele>3824</ele>
      </trkpt>
      <trkpt lat="-15.466015" lon="-70.115407">
        <ele>3824</ele>
      </trkpt>
      <trkpt lat="-15.46653" lon="-70.114856">
        <ele>3824.07</ele>
      </trkpt>
      <trkpt lat="-15.466937" lon="-70.114414">
        <ele>3825</ele>
      </trkpt>
      <trkpt lat="-15.467726" lon="-70.113575">
        <ele>3825.59</ele>
      </trkpt>
      <trkpt lat="-15.46793" lon="-70.113357">
        <ele>3825</ele>
      </trkpt>
      <trkpt lat="-15.468385" lon="-70.11284">
        <ele>3826</ele>
      </trkpt>
      <trkpt lat="-15.468661" lon="-70.112509">
        <ele>3825.89</ele>
      </trkpt>
      <trkpt lat="-15.468867" lon="-70.112263">
        <ele>3825.81</ele>
      </trkpt>
      <trkpt lat="-15.469169" lon="-70.111952">
        <ele>3825</ele>
      </trkpt>
      <trkpt lat="-15.46949" lon="-70.111579">
        <ele>3825</ele>
      </trkpt>
      <trkpt lat="-15.469662" lon="-70.111404">
        <ele>3825.01</ele>
      </trkpt>
      <trkpt lat="-15.469792" lon="-70.111271">
        <ele>3825.01</ele>
      </trkpt>
      <trkpt lat="-15.469846" lon="-70.111196">
        <ele>3825</ele>
      </trkpt>
      <trkpt lat="-15.470067" lon="-70.110962">
        <ele>3825</ele>
      </trkpt>
      <trkpt lat="-15.470182" lon="-70.110801">
        <ele>3825.54</ele>
      </trkpt>
      <trkpt lat="-15.470642" lon="-70.111081">
        <ele>3825.53</ele>
      </trkpt>
      <trkpt lat="-15.471078" lon="-70.111346">
        <ele>3825</ele>
      </trkpt>
      <trkpt lat="-15.471733" lon="-70.111719">
        <ele>3826</ele>
      </trkpt>
      <trkpt lat="-15.472102" lon="-70.111987">
        <ele>3825.9</ele>
      </trkpt>
      <trkpt lat="-15.472474" lon="-70.112322">
        <ele>3826</ele>
      </trkpt>
      <trkpt lat="-15.474772" lon="-70.114592">
        <ele>3825.39</ele>
      </trkpt>
      <trkpt lat="-15.476332" lon="-70.116151">
        <ele>3826</ele>
      </trkpt>
      <trkpt lat="-15.478002" lon="-70.117777">
        <ele>3826</ele>
      </trkpt>
      <trkpt lat="-15.478759" lon="-70.118542">
        <ele>3827</ele>
      </trkpt>
      <trkpt lat="-15.479668" lon="-70.119446">
        <ele>3828.33</ele>
      </trkpt>
      <trkpt lat="-15.480109" lon="-70.119885">
        <ele>3826.5</ele>
      </trkpt>
      <trkpt lat="-15.480915" lon="-70.12073">
        <ele>3826.04</ele>
      </trkpt>
      <trkpt lat="-15.481215" lon="-70.120994">
        <ele>3825.9</ele>
      </trkpt>
      <trkpt lat="-15.482618" lon="-70.122446">
        <ele>3826</ele>
      </trkpt>
      <trkpt lat="-15.483439" lon="-70.123251">
        <ele>3827.66</ele>
      </trkpt>
      <trkpt lat="-15.483778" lon="-70.123598">
        <ele>3826.67</ele>
      </trkpt>
      <trkpt lat="-15.483992" lon="-70.123821">
        <ele>3826</ele>
      </trkpt>
      <trkpt lat="-15.484121" lon="-70.123935">
        <ele>3826</ele>
      </trkpt>
      <trkpt lat="-15.484429" lon="-70.124829">
        <ele>3825.87</ele>
      </trkpt>
      <trkpt lat="-15.484889" lon="-70.124652">
        <ele>3825.98</ele>
      </trkpt>
      <trkpt lat="-15.485663" lon="-70.124347">
        <ele>3827</ele>
      </trkpt>
      <trkpt lat="-15.486135" lon="-70.124165">
        <ele>3826</ele>
      </trkpt>
      <trkpt lat="-15.487145" lon="-70.12376">
        <ele>3826</ele>
      </trkpt>
      <trkpt lat="-15.48766" lon="-70.123561">
        <ele>3826</ele>
      </trkpt>
      <trkpt lat="-15.488025" lon="-70.12342">
        <ele>3826</ele>
      </trkpt>
      <trkpt lat="-15.488359" lon="-70.124285">
        <ele>3827.63</ele>
      </trkpt>
      <trkpt lat="-15.488434" lon="-70.124478">
        <ele>3828</ele>
      </trkpt>
      <trkpt lat="-15.488785" lon="-70.125495">
        <ele>3827.42</ele>
      </trkpt>
      <trkpt lat="-15.488971" lon="-70.125994">
        <ele>3825.75</ele>
      </trkpt>
      <trkpt lat="-15.489249" lon="-70.126742">
        <ele>3827.42</ele>
      </trkpt>
      <trkpt lat="-15.489423" lon="-70.127244">
        <ele>3826</ele>
      </trkpt>
      <trkpt lat="-15.489677" lon="-70.127931">
        <ele>3827.99</ele>
      </trkpt>
      <trkpt lat="-15.489937" lon="-70.128641">
        <ele>3826</ele>
      </trkpt>
      <trkpt lat="-15.490236" lon="-70.129456">
        <ele>3827.34</ele>
      </trkpt>
      <trkpt lat="-15.491199" lon="-70.132086">
        <ele>3827.34</ele>
      </trkpt>
      <trkpt lat="-15.491798" lon="-70.133721">
        <ele>3828.57</ele>
      </trkpt>
      <trkpt lat="-15.491804" lon="-70.133863">
        <ele>3829</ele>
      </trkpt>
      <trkpt lat="-15.491552" lon="-70.13458">
        <ele>3828.8</ele>
      </trkpt>
      <trkpt lat="-15.491511" lon="-70.134694">
        <ele>3828.77</ele>
      </trkpt>
      <trkpt lat="-15.491015" lon="-70.134559">
        <ele>3828.56</ele>
      </trkpt>
      <trkpt lat="-15.490364" lon="-70.134486">
        <ele>3827.3</ele>
      </trkpt>
      <trkpt lat="-15.49022" lon="-70.13452">
        <ele>3826.95</ele>
      </trkpt>
      <trkpt lat="-15.48994" lon="-70.134588">
        <ele>3826.26</ele>
      </trkpt>
      <trkpt lat="-15.489415" lon="-70.134793">
        <ele>3826.86</ele>
      </trkpt>
      <trkpt lat="-15.489344" lon="-70.13482">
        <ele>3826.95</ele>
      </trkpt>
      <trkpt lat="-15.489328" lon="-70.134827">
        <ele>3826.97</ele>
      </trkpt>
      <trkpt lat="-15.489316" lon="-70.134831">
        <ele>3826.98</ele>
      </trkpt>
      <trkpt lat="-15.489327" lon="-70.134888">
        <ele>3826.99</ele>
      </trkpt>
      <trkpt lat="-15.489341" lon="-70.134958">
        <ele>3827</ele>
      </trkpt>
      <trkpt lat="-15.489313" lon="-70.135076">
        <ele>3827.16</ele>
      </trkpt>
      <trkpt lat="-15.489294" lon="-70.135154">
        <ele>3827.27</ele>
      </trkpt>
      <trkpt lat="-15.48927" lon="-70.135254">
        <ele>3827.41</ele>
      </trkpt>
      <trkpt lat="-15.489216" lon="-70.135479">
        <ele>3827.72</ele>
      </trkpt>
      <trkpt lat="-15.489243" lon="-70.135366">
        <ele>3827.57</ele>
      </trkpt>
      <trkpt lat="-15.489196" lon="-70.135561">
        <ele>3827.84</ele>
      </trkpt>
      <trkpt lat="-15.489181" lon="-70.135626">
        <ele>3827.93</ele>
      </trkpt>
      <trkpt lat="-15.489156" lon="-70.135728">
        <ele>3828.07</ele>
      </trkpt>
      <trkpt lat="-15.489136" lon="-70.135811">
        <ele>3828.18</ele>
      </trkpt>
      <trkpt lat="-15.489118" lon="-70.135886">
        <ele>3828.29</ele>
      </trkpt>
      <trkpt lat="-15.489096" lon="-70.135977">
        <ele>3828.42</ele>
      </trkpt>
      <trkpt lat="-15.489037" lon="-70.136224">
        <ele>3827.98</ele>
      </trkpt>
      <trkpt lat="-15.489011" lon="-70.136334">
        <ele>3827.65</ele>
      </trkpt>
      <trkpt lat="-15.48903" lon="-70.136256">
        <ele>3827.88</ele>
      </trkpt>
      <trkpt lat="-15.488966" lon="-70.136525">
        <ele>3827.09</ele>
      </trkpt>
      <trkpt lat="-15.488896" lon="-70.136817">
        <ele>3827.47</ele>
      </trkpt>
      <trkpt lat="-15.488753" lon="-70.137424">
        <ele>3827.38</ele>
      </trkpt>
      <trkpt lat="-15.488623" lon="-70.13798">
        <ele>3826.56</ele>
      </trkpt>
      <trkpt lat="-15.488586" lon="-70.138172">
        <ele>3825.81</ele>
      </trkpt>
      <trkpt lat="-15.48851" lon="-70.138151">
        <ele>3825.71</ele>
      </trkpt>
      <trkpt lat="-15.488346" lon="-70.138117">
        <ele>3825.11</ele>
      </trkpt>
      <trkpt lat="-15.487501" lon="-70.137976">
        <ele>3826</ele>
      </trkpt>
      <trkpt lat="-15.487219" lon="-70.137929">
        <ele>3827.63</ele>
      </trkpt>
      <trkpt lat="-15.487007" lon="-70.137908">
        <ele>3828</ele>
      </trkpt>
      <trkpt lat="-15.486967" lon="-70.138216">
        <ele>3827.9</ele>
      </trkpt>
      <trkpt lat="-15.486866" lon="-70.138984">
        <ele>3827.67</ele>
      </trkpt>
      <trkpt lat="-15.486766" lon="-70.139818">
        <ele>3826.98</ele>
      </trkpt>
      <trkpt lat="-15.486708" lon="-70.140491">
        <ele>3826.95</ele>
      </trkpt>
      <trkpt lat="-15.486626" lon="-70.141115">
        <ele>3826.24</ele>
      </trkpt>
      <trkpt lat="-15.48652" lon="-70.142217">
        <ele>3828.11</ele>
      </trkpt>
      <trkpt lat="-15.486486" lon="-70.142558">
        <ele>3827.32</ele>
      </trkpt>
      <trkpt lat="-15.48644" lon="-70.143024">
        <ele>3826.79</ele>
      </trkpt>
      <trkpt lat="-15.486381" lon="-70.143843">
        <ele>3827.58</ele>
      </trkpt>
      <trkpt lat="-15.486149" lon="-70.145989">
        <ele>3827</ele>
      </trkpt>
      <trkpt lat="-15.486032" lon="-70.146962">
        <ele>3827</ele>
      </trkpt>
      <trkpt lat="-15.485983" lon="-70.147542">
        <ele>3827</ele>
      </trkpt>
      <trkpt lat="-15.485924" lon="-70.148077">
        <ele>3827</ele>
      </trkpt>
      <trkpt lat="-15.485766" lon="-70.14943">
        <ele>3826.4</ele>
      </trkpt>
      <trkpt lat="-15.485607" lon="-70.1507">
        <ele>3826</ele>
      </trkpt>
      <trkpt lat="-15.485581" lon="-70.15102">
        <ele>3826.07</ele>
      </trkpt>
      <trkpt lat="-15.485383" lon="-70.152522">
        <ele>3827.78</ele>
      </trkpt>
      <trkpt lat="-15.485349" lon="-70.15322">
        <ele>3827.02</ele>
      </trkpt>
      <trkpt lat="-15.485344" lon="-70.153321">
        <ele>3827</ele>
      </trkpt>
      <trkpt lat="-15.485338" lon="-70.153323">
        <ele>3827.01</ele>
      </trkpt>
      <trkpt lat="-15.485344" lon="-70.153321">
        <ele>3827</ele>
      </trkpt>
      <trkpt lat="-15.485367" lon="-70.153292">
        <ele>3827</ele>
      </trkpt>
      <trkpt lat="-15.485413" lon="-70.153236">
        <ele>3827</ele>
      </trkpt>
      <trkpt lat="-15.485424" lon="-70.153238">
        <ele>3827.01</ele>
      </trkpt>
      <trkpt lat="-15.485587" lon="-70.153263">
        <ele>3827.09</ele>
      </trkpt>
      <trkpt lat="-15.485572" lon="-70.153346">
        <ele>3827.26</ele>
      </trkpt>
      <trkpt lat="-15.485622" lon="-70.153348">
        <ele>3827.3</ele>
      </trkpt>
      <trkpt lat="-15.486509" lon="-70.153397">
        <ele>3827.97</ele>
      </trkpt>
      <trkpt lat="-15.486504" lon="-70.153466">
        <ele>3827.98</ele>
      </trkpt>
      <trkpt lat="-15.486367" lon="-70.154925">
        <ele>3827.88</ele>
      </trkpt>
      <trkpt lat="-15.486162" lon="-70.15695">
        <ele>3827.95</ele>
      </trkpt>
      <trkpt lat="-15.486012" lon="-70.15819">
        <ele>3827.17</ele>
      </trkpt>
      <trkpt lat="-15.485942" lon="-70.15881">
        <ele>3828</ele>
      </trkpt>
      <trkpt lat="-15.485904" lon="-70.159244">
        <ele>3828.58</ele>
      </trkpt>
      <trkpt lat="-15.485827" lon="-70.159909">
        <ele>3828.93</ele>
      </trkpt>
      <trkpt lat="-15.48578" lon="-70.160403">
        <ele>3828.39</ele>
      </trkpt>
      <trkpt lat="-15.485738" lon="-70.160756">
        <ele>3829</ele>
      </trkpt>
      <trkpt lat="-15.486484" lon="-70.160833">
        <ele>3829</ele>
      </trkpt>
      <trkpt lat="-15.486975" lon="-70.160877">
        <ele>3828</ele>
      </trkpt>
      <trkpt lat="-15.48891" lon="-70.161084">
        <ele>3827</ele>
      </trkpt>
      <trkpt lat="-15.489301" lon="-70.161121">
        <ele>3827.67</ele>
      </trkpt>
      <trkpt lat="-15.489491" lon="-70.161138">
        <ele>3828</ele>
      </trkpt>
      <trkpt lat="-15.489416" lon="-70.16191">
        <ele>3828.03</ele>
      </trkpt>
      <trkpt lat="-15.489317" lon="-70.162627">
        <ele>3829</ele>
      </trkpt>
      <trkpt lat="-15.489312" lon="-70.162706">
        <ele>3829.09</ele>
      </trkpt>
      <trkpt lat="-15.489481" lon="-70.162721">
        <ele>3829.78</ele>
      </trkpt>
      <trkpt lat="-15.490015" lon="-70.162769">
        <ele>3829</ele>
      </trkpt>
      <trkpt lat="-15.490001" lon="-70.162938">
        <ele>3828.86</ele>
      </trkpt>
      <trkpt lat="-15.489959" lon="-70.163439">
        <ele>3828.45</ele>
      </trkpt>
      <trkpt lat="-15.489479" lon="-70.163398">
        <ele>3828.89</ele>
      </trkpt>
      <trkpt lat="-15.48943" lon="-70.163393">
        <ele>3828.92</ele>
      </trkpt>
      <trkpt lat="-15.489422" lon="-70.163463">
        <ele>3828.74</ele>
      </trkpt>
      <trkpt lat="-15.489359" lon="-70.164058">
        <ele>3827.27</ele>
      </trkpt>
      <trkpt lat="-15.489296" lon="-70.164536">
        <ele>3827</ele>
      </trkpt>
      <trkpt lat="-15.489246" lon="-70.165019">
        <ele>3827.33</ele>
      </trkpt>
      <trkpt lat="-15.489168" lon="-70.165815">
        <ele>3827.93</ele>
      </trkpt>
      <trkpt lat="-15.48915" lon="-70.165942">
        <ele>3828.13</ele>
      </trkpt>
      <trkpt lat="-15.489056" lon="-70.166591">
        <ele>3828.67</ele>
      </trkpt>
      <trkpt lat="-15.488874" lon="-70.168027">
        <ele>3827.29</ele>
      </trkpt>
      <trkpt lat="-15.488767" lon="-70.169052">
        <ele>3828</ele>
      </trkpt>
      <trkpt lat="-15.488793" lon="-70.169708">
        <ele>3828</ele>
      </trkpt>
      <trkpt lat="-15.488816" lon="-70.170295">
        <ele>3828</ele>
      </trkpt>
      <trkpt lat="-15.488888" lon="-70.171508">
        <ele>3828</ele>
      </trkpt>
      <trkpt lat="-15.488884" lon="-70.172069">
        <ele>3828</ele>
      </trkpt>
      <trkpt lat="-15.48867" lon="-70.173097">
        <ele>3828</ele>
      </trkpt>
      <trkpt lat="-15.488477" lon="-70.174147">
        <ele>3828</ele>
      </trkpt>
      <trkpt lat="-15.488374" lon="-70.17471">
        <ele>3828</ele>
      </trkpt>
      <trkpt lat="-15.487862" lon="-70.177987">
        <ele>3828.94</ele>
      </trkpt>
      <trkpt lat="-15.487613" lon="-70.179546">
        <ele>3829</ele>
      </trkpt>
      <trkpt lat="-15.487437" lon="-70.180523">
        <ele>3829</ele>
      </trkpt>
      <trkpt lat="-15.487406" lon="-70.180792">
        <ele>3829</ele>
      </trkpt>
      <trkpt lat="-15.487216" lon="-70.182504">
        <ele>3828.55</ele>
      </trkpt>
      <trkpt lat="-15.487128" lon="-70.183465">
        <ele>3828</ele>
      </trkpt>
      <trkpt lat="-15.487031" lon="-70.184763">
        <ele>3828.79</ele>
      </trkpt>
      <trkpt lat="-15.486873" lon="-70.186916">
        <ele>3829</ele>
      </trkpt>
      <trkpt lat="-15.486836" lon="-70.187308">
        <ele>3828.41</ele>
      </trkpt>
      <trkpt lat="-15.486701" lon="-70.188383">
        <ele>3829</ele>
      </trkpt>
      <trkpt lat="-15.486564" lon="-70.189139">
        <ele>3830</ele>
      </trkpt>
    </trkseg>
  </trk>
</gpx>
